NORAD_CAT_ID,OBJECT_NAME,OBJECT_TYPE,EPOCH,MEAN_MOTION,ECCENTRICITY,INCLINATION,RA_OF_ASC_NODE,ARG_OF_PERICENTER,MEAN_ANOMALY,BSTAR,MEAN_MOTION_DOT,MEAN_MOTION_DDOT,TLE_LINE0,TLE_LINE1,TLE_LINE2,SEMIMAJOR_AXIS,PERIOD,APOGEE,PERIGEE,DECAYED
49454.0,STARLINK-3160,PAYLOAD,2023-02-15 13:02:50,15.08844691,0.000137,53.2133,198.6708,79.2003,280.9143,0.00022901,3.359e-05,0.0,0 STARLINK-3160,1 49454U 21104AY  23046.54363725  .00003359  00000-0  22901-3 0  9991,2 49454  53.2133 198.6708 0001370  79.2003 280.9143 15.08844691 69970,6917.866,95.437,540.679,538.783,0.0
49454.0,STARLINK-3160,PAYLOAD,2023-02-15 16:13:36,15.08850877,0.000124,53.2138,198.0767,83.0439,277.0694,0.00030226,4.527e-05,0.0,0 STARLINK-3160,1 49454U 21104AY  23046.67611306  .00004527  00000-0  30226-3 0  9993,2 49454  53.2138 198.0767 0001240  83.0439 277.0694 15.08850877 71071,6917.847,95.437,540.57,538.854,0.0
49454.0,STARLINK-3160,PAYLOAD,2023-02-16 12:53:36,15.08849561,0.0001244,53.2131,194.2103,90.6697,269.4437,0.00024781,3.659e-05,0.0,0 STARLINK-3160,1 49454U 21104AY  23047.53723208  .00003659  00000-0  24781-3 0  9998,2 49454  53.2131 194.2103 0001244  90.6697 269.4437 15.08849561 70123,6917.851,95.437,540.577,538.856,0.0
49454.0,STARLINK-3160,PAYLOAD,2023-02-16 19:15:08,15.0886462,0.0001234,53.2145,193.0237,85.0534,275.0599,0.00050505,7.764e-05,0.0,0 STARLINK-3160,1 49454U 21104AY  23047.80218539  .00007764  00000-0  50505-3 0  9998,2 49454  53.2145 193.0237 0001234  85.0534 275.0599 15.08864620 71249,6917.805,95.436,540.524,538.816,0.0
49454.0,STARLINK-3160,PAYLOAD,2023-02-16 20:50:31,15.08870795,0.0001041,53.2138,192.7267,76.9872,283.1237,0.0006871,0.00010673,0.0,0 STARLINK-3160,1 49454U 21104AY  23047.86842179  .00010673  00000-0  68710-3 0  9997,2 49454  53.2138 192.7267 0001041  76.9872 283.1237 15.08870795 70170,6917.786,95.436,540.371,538.931,0.0
49454.0,STARLINK-3160,PAYLOAD,2023-02-17 11:09:01,15.08830391,0.0001278,53.2132,190.0474,109.4074,250.7057,-0.00020907,-3.613e-05,0.0,0 STARLINK-3160,1 49454U 21104AY  23048.46459587 -.00003613  00000-0 -20907-3 0  9995,2 49454  53.2132 190.0474 0001278 109.4074 250.7057 15.08830391 71341,6917.91,95.438,540.659,538.891,0.0
49454.0,STARLINK-3160,PAYLOAD,2023-02-17 12:44:24,15.08832687,0.0001397,53.2132,189.7516,98.077,262.0381,-0.00010597,-1.974e-05,0.0,0 STARLINK-3160,1 49454U 21104AY  23048.53083519 -.00001974  00000-0 -10597-3 0  9993,2 49454  53.2132 189.7516 0001397  98.0770 262.0381 15.08832687 70278,6917.903,95.438,540.734,538.801,0.0
49454.0,STARLINK-3160,PAYLOAD,2023-02-17 20:41:19,15.08843478,0.0001076,53.2146,188.2659,95.4571,264.6544,0.00068312,0.00010602,0.0,0 STARLINK-3160,1 49454U 21104AY  23048.86203528  .00010602  00000-0  68312-3 0  9997,2 49454  53.2146 188.2659 0001076  95.4571 264.6544 15.08843478 70324,6917.87,95.437,540.479,538.99,0.0
49454.0,STARLINK-3160,PAYLOAD,2023-02-18 10:59:48,15.08835977,0.0001298,53.2148,185.5895,96.3458,263.7682,0.0011663,0.0001832,0.0,0 STARLINK-3160,1 49454U 21104AY  23049.45820575  .00018320  00000-0  11663-2 0  9991,2 49454  53.2148 185.5895 0001298  96.3458 263.7682 15.08835977 71495,6917.893,95.438,540.656,538.86,0.0
49454.0,STARLINK-3160,PAYLOAD,2023-02-18 12:35:12,15.08839157,0.0001229,53.2147,185.2919,97.36,262.7532,0.0012199,0.0001918,0.0,0 STARLINK-3160,1 49454U 21104AY  23049.52444511  .00019180  00000-0  12199-2 0  9991,2 49454  53.2147 185.2919 0001229  97.3600 262.7532 15.08839157 70421,6917.883,95.438,540.598,538.898,0.0
49454.0,STARLINK-3160,PAYLOAD,2023-02-19 01:18:17,15.08837128,7.71e-05,53.2152,182.913,90.9557,269.1523,0.00044159,6.747e-05,0.0,0 STARLINK-3160,1 49454U 21104AY  23050.05436656  .00006747  00000-0  44159-3 0  9999,2 49454  53.2152 182.9130 0000771  90.9557 269.1523 15.08837128 71582,6917.889,95.438,540.288,539.221,0.0
49454.0,STARLINK-3160,PAYLOAD,2023-02-19 14:01:22,15.08853368,9.92e-05,53.2155,180.5348,87.4875,272.6231,0.0015595,0.00024628,0.0,0 STARLINK-3160,1 49454U 21104AY  23050.58428725  .00024628  00000-0  15595-2 0  9994,2 49454  53.2155 180.5348 0000992  87.4875 272.6231 15.08853368 70587,6917.84,95.437,540.391,539.018,0.0
49454.0,STARLINK-3160,PAYLOAD,2023-02-19 17:12:08,15.08861679,9.86e-05,53.2155,179.9398,88.8825,271.228,0.0017827,0.00028214,0.0,0 STARLINK-3160,1 49454U 21104AY  23050.71676522  .00028214  00000-0  17827-2 0  9994,2 49454  53.2155 179.9398 0000986  88.8825 271.2280 15.08861679 71682,6917.814,95.436,540.361,538.997,0.0
49454.0,STARLINK-3160,PAYLOAD,2023-02-20 01:09:04,15.08855006,0.0001371,53.2158,178.453,85.8284,274.2865,0.0011832,0.000186,0.0,0 STARLINK-3160,1 49454U 21104AY  23051.04796593  .00018600  00000-0  11832-2 0  9990,2 49454  53.2158 178.4530 0001371  85.8284 274.2865 15.08855006 71737,6917.835,95.437,540.648,538.751,0.0
49454.0,STARLINK-3160,PAYLOAD,2023-02-20 13:52:09,15.08858119,0.0001246,53.2156,176.0738,91.2323,268.8812,0.0014701,0.00023198,0.0,0 STARLINK-3160,1 49454U 21104AY  23051.57788374  .00023198  00000-0  14701-2 0  9992,2 49454  53.2156 176.0738 0001246  91.2323 268.8812 15.08858119 70733,6917.825,95.436,540.552,538.828,0.0
49454.0,STARLINK-3160,PAYLOAD,2023-02-20 18:38:18,15.0886306,0.0001498,53.2162,175.1829,96.3999,263.7164,0.00089267,0.00013956,0.0,0 STARLINK-3160,1 49454U 21104AY  23051.77660090  .00013956  00000-0  89267-3 0  9999,2 49454  53.2162 175.1829 0001498  96.3999 263.7164 15.08863060 71843,6917.81,95.436,540.711,538.639,0.0
49454.0,STARLINK-3160,PAYLOAD,2023-02-21 12:07:33,15.08855723,0.0001974,53.2161,171.912,80.8417,279.2799,0.0008309,0.00012966,0.0,0 STARLINK-3160,1 49454U 21104AY  23052.50524306  .00012966  00000-0  83090-3 0  9998,2 49454  53.2161 171.9120 0001974  80.8417 279.2799 15.08855723 70877,6917.832,95.437,541.063,538.332,0.0
49454.0,STARLINK-3160,PAYLOAD,2023-02-21 16:53:42,15.08866732,0.0001629,53.216,171.0195,86.7384,273.3795,0.0010759,0.00016889,0.0,0 STARLINK-3160,1 49454U 21104AY  23052.70395839  .00016889  00000-0  10759-2 0  9996,2 49454  53.2160 171.0195 0001629  86.7384 273.3795 15.08866732 71980,6917.799,95.436,540.791,538.537,0.0
49454.0,STARLINK-3160,PAYLOAD,2023-02-21 20:04:27,15.08882796,0.0001354,53.2153,170.4244,99.3255,260.789,0.0017222,0.00027259,0.0,0 STARLINK-3160,1 49454U 21104AY  23052.83643334  .00027259  00000-0  17222-2 0  9991,2 49454  53.2153 170.4244 0001354  99.3255 260.7890 15.08882796 70929,6917.75,95.435,540.551,538.678,0.0
49454.0,STARLINK-3160,PAYLOAD,2023-02-22 11:58:19,15.08864287,0.0002839,53.2157,167.4517,140.296,219.824,0.0015177,0.00023966,0.0,0 STARLINK-3160,1 49454U 21104AY  23053.49883204  .00023966  00000-0  15177-2 0  9994,2 49454  53.2157 167.4517 0002839 140.2960 219.8240 15.08864287 72101,6917.806,95.436,541.635,537.707,0.0
49454.0,STARLINK-3160,PAYLOAD,2023-02-22 13:33:42,15.08856172,0.0002145,53.2157,167.1542,140.4546,219.6603,0.00093436,0.0001462,0.0,0 STARLINK-3160,1 49454U 21104AY  23053.56507159  .00014620  00000-0  93436-3 0  9996,2 49454  53.2157 167.1542 0002145 140.4546 219.6603 15.08856172 71034,6917.831,95.437,541.18,538.212,0.0
49454.0,STARLINK-3160,PAYLOAD,2023-02-22 16:44:28,15.08851884,0.0001557,53.2162,166.5591,107.3057,252.8106,0.00059634,9.219e-05,0.0,0 STARLINK-3160,1 49454U 21104AY  23053.69755336  .00009219  00000-0  59634-3 0  9992,2 49454  53.2162 166.5591 0001557 107.3057 252.8106 15.08851884 72136,6917.844,95.437,540.786,538.632,0.0
49454.0,STARLINK-3160,PAYLOAD,2023-02-22 19:55:14,15.08863315,0.0001369,53.2156,165.9639,78.6683,281.4463,0.00079973,0.00012471,0.0,0 STARLINK-3160,1 49454U 21104AY  23053.83003047  .00012471  00000-0  79973-3 0  9995,2 49454  53.2156 165.9639 0001369  78.6683 281.4463 15.08863315 71079,6917.809,95.436,540.621,538.727,0.0
49454.0,STARLINK-3160,PAYLOAD,2023-02-23 00:41:24,15.08834425,7.35e-05,53.2163,165.0724,113.5305,246.5764,-9.3016e-05,-1.767e-05,0.0,0 STARLINK-3160,1 49454U 21104AY  23054.02875501 -.00001767  00000-0 -93016-4 0  9992,2 49454  53.2163 165.0724 0000735 113.5305 246.5764 15.08834425 72188,6917.897,95.438,540.271,539.254,0.0
49454.0,STARLINK-3160,PAYLOAD,2023-02-23 07:02:57,15.08821428,7.18e-05,53.2157,163.8832,89.4089,270.6985,-0.00052656,-8.654e-05,0.0,0 STARLINK-3160,1 49454U 21104AY  23054.29372235 -.00008654  00000-0 -52656-3 0  9993,2 49454  53.2157 163.8832 0000718  89.4089 270.6985 15.08821428 72225,6917.937,95.439,540.299,539.305,0.0
49454.0,STARLINK-3160,PAYLOAD,2023-02-23 11:49:06,15.08828495,6.55e-05,53.2139,162.9935,93.1527,266.954,-8.4289e-05,-1.628e-05,0.0,0 STARLINK-3160,1 49454U 21104AY  23054.49244196 -.00001628  00000-0 -84289-4 0  9991,2 49454  53.2139 162.9935 0000655  93.1527 266.9540 15.08828495 71177,6917.916,95.438,540.234,539.327,0.0
49454.0,STARLINK-3160,PAYLOAD,2023-02-23 13:24:30,15.08828143,0.0001155,53.2134,162.6934,96.6109,263.5015,0.00082147,0.00012806,0.0,0 STARLINK-3160,1 49454U 21104AY  23054.55868304  .00012806  00000-0  82147-3 0  9999,2 49454  53.2134 162.6934 0001155  96.6109 263.5015 15.08828143 72269,6917.917,95.438,540.581,538.983,0.0
49454.0,STARLINK-3160,PAYLOAD,2023-02-24 11:39:54,15.08843381,0.0001439,53.2136,158.5293,95.1734,264.9422,0.00069537,0.00010797,0.0,0 STARLINK-3160,1 49454U 21104AY  23055.48604779  .00010797  00000-0  69537-3 0  9991,2 49454  53.2136 158.5293 0001439  95.1734 264.9422 15.08843381 71320,6917.87,95.437,540.731,538.74,0.0
49454.0,STARLINK-3160,PAYLOAD,2023-02-24 18:01:26,15.08857105,0.0001359,53.2143,157.3404,92.3705,267.7442,0.00095725,0.00014987,0.0,0 STARLINK-3160,1 49454U 21104AY  23055.75100454  .00014987  00000-0  95725-3 0  9995,2 49454  53.2143 157.3404 0001359  92.3705 267.7442 15.08857105 72443,6917.828,95.436,540.633,538.753,0.0
49454.0,STARLINK-3160,PAYLOAD,2023-02-25 11:30:42,15.08833711,0.0001348,53.2145,154.0698,84.0492,276.0654,0.00016556,2.348e-05,0.0,0 STARLINK-3160,1 49454U 21104AY  23056.47965308  .00002348  00000-0  16556-3 0  9995,2 49454  53.2145 154.0698 0001348  84.0492 276.0654 15.08833711 72550,6917.9,95.438,540.697,538.832,0.0
